0 IRIDIUM 33 DEB
1 34144U 97051DX  13281.48449581  .00076160  00000-0  56495-2 0  5623
2 34144 086.3176 082.2746 0036987 235.8196 179.9334 15.02176928247892
0 IRIDIUM 33 DEB
1 34144U 97051DX  13282.14964679  .00156593  00000-0  11447-1 0  5634
2 34144 086.3173 081.9581 0036645 233.8976 176.6394 15.02340217247992
0 IRIDIUM 33 DEB
1 34144U 97051DX  13282.69707622  .00118323  00000-0  86578-2 0  5645
2 34144 086.3171 081.6974 0036962 232.2572 257.1700 15.02486603248076
0 IRIDIUM 33 DEB
1 34144U 97051DX  13283.41123468  .00133208  00000-0  96934-2 0  5653
2 34144 086.3165 081.3576 0036552 229.9450 159.9232 15.02631801248179
0 IRIDIUM 33 DEB
1 34144U 97051DX  13283.69592315  .00138174  00000-0  10040-1 0  5665
2 34144 086.3165 081.2219 0036437 228.8276 260.0716 15.02665906248228
0 IRIDIUM 33 DEB
1 34144U 97051DX  13284.14714490  .00123043  00000-0  89346-2 0  5672
2 34144 086.3163 081.0070 0036361 227.4402 180.8572 15.02768734248290
0 IRIDIUM 33 DEB
1 34144U 97051DX  13286.47938189  .00106031  00000-0  76245-2 0  5709
2 34144 086.3149 079.8953 0035702 219.7125 199.4901 15.03239734248648
0 IRIDIUM 33 DEB
1 34144U 97051DX  13287.69092973  .00162011  00000-0  11488-1 0  5714
2 34144 086.3142 079.3171 0035147 216.0800 275.8073 15.03502191248820
0 IRIDIUM 33 DEB
1 34144U 97051DX  13289.14048845  .00168298  00000-0  11794-1 0  5729
2 34144 086.3137 078.6254 0034438 211.5255 202.2147 15.03932551249042
0 IRIDIUM 33 DEB
1 34144U 97051DX  13289.20666146  .00157314  00000-0  11039-1 0  5736
2 34144 086.3138 078.5937 0034419 211.0660 200.7155 15.03937853249057
0 IRIDIUM 33 DEB
1 34144U 97051DX  13290.13892199  .00160136  00000-0  11163-1 0  5744
2 34144 086.3132 078.1482 0034055 208.5597 207.7253 15.04181359249192
0 IRIDIUM 33 DEB
1 34144U 97051DX  13291.47065508  .00152618  00000-0  10549-1 0  5752
2 34144 086.3135 077.5119 0033203 203.8965 219.9417 15.04559355249390
0 IRIDIUM 33 DEB
1 34144U 97051DX  13292.67940623  .00155771  00000-0  10670-1 0  5764
2 34144 086.3134 076.9339 0032321 199.8919 287.4598 15.04904490249573
0 IRIDIUM 33 DEB
1 34144U 97051DX  13293.67684925  .00161505  00000-0  10980-1 0  5772
2 34144 086.3125 076.4566 0031712 197.2061 290.8665 15.05171795249728
0 IRIDIUM 33 DEB
1 34144U 97051DX  13295.19232697  .00171921  00000-0  11550-1 0  5784
2 34144 086.3123 075.7313 0030638 191.4749 224.1569 15.05589385249959
